{
  "type": "FeatureCollection",
  "features": [
    {
      "type": "Feature",
      "properties": {
        "norad_id": 66639,
        "name": "STARLINK-35908",
        "group": "last-30-days",
        "lat": -37.854774689683815,
        "lon": 47.33409361417084,
        "alt_km": 409.93910782359126,
        "timestamp": "2025-12-11T18:59:44.811366+00:00",
        "meta_object_name": "STARLINK-35908",
        "meta_object_id": "2025-271Y",
        "meta_epoch": "2025-12-11T06:00:02.999808",
        "meta_mean_motion": 15.56430241,
        "meta_eccentricity": 0.00010633,
        "meta_inclination": 53.1596,
        "meta_ra_of_asc_node": 194.3058,
        "meta_arg_of_pericenter": 79.979,
        "meta_mean_anomaly": 356.857,
        "meta_ephemeris_type": 0,
        "meta_classification_type": "U",
        "meta_norad_cat_id": 66639,
        "meta_element_set_no": 999,
        "meta_rev_at_epoch": 400,
        "meta_bstar": -0.032934597,
        "meta_mean_motion_dot": -0.02108297,
        "meta_mean_motion_ddot": 0,
        "tle_line1": "1 66639U 25271Y   25345.25003472 -.02108297  00000+0 -32935-1 0  9992",
        "tle_line2": "2 66639  53.1596 194.3058 0001063  79.9790 356.8570 15.56430241  4001"
      },
      "geometry": {
        "type": "Point",
        "coordinates": [
          47.33409361417084,
          -37.854774689683815
        ]
      }
    },
    {
      "type": "Feature",
      "properties": {
        "norad_id": 66640,
        "name": "STARLINK-35921",
        "group": "last-30-days",
        "lat": -39.0841263576693,
        "lon": 49.20265154378627,
        "alt_km": 410.01264811227975,
        "timestamp": "2025-12-11T18:59:44.811377+00:00",
        "meta_object_name": "STARLINK-35921",
        "meta_object_id": "2025-271Z",
        "meta_epoch": "2025-12-11T06:00:02.999808",
        "meta_mean_motion": 15.56433262,
        "meta_eccentricity": 0.00010475,
        "meta_inclination": 53.1597,
        "meta_ra_of_asc_node": 194.3019,
        "meta_arg_of_pericenter": 79.0628,
        "meta_mean_anomaly": 359.6883,
        "meta_ephemeris_type": 0,
        "meta_classification_type": "U",
        "meta_norad_cat_id": 66640,
        "meta_element_set_no": 999,
        "meta_rev_at_epoch": 400,
        "meta_bstar": -0.032995088,
        "meta_mean_motion_dot": -0.02111943,
        "meta_mean_motion_ddot": 0,
        "tle_line1": "1 66640U 25271Z   25345.25003472 -.02111943  00000+0 -32995-1 0  9992",
        "tle_line2": "2 66640  53.1597 194.3019 0001047  79.0628 359.6883 15.56433262  4008"
      },
      "geometry": {
        "type": "Point",
        "coordinates": [
          49.20265154378627,
          -39.0841263576693
        ]
      }
    },
    {
      "type": "Feature",
      "properties": {
        "norad_id": 66641,
        "name": "STARLINK-35923",
        "group": "last-30-days",
        "lat": -43.666437712726875,
        "lon": 57.36674437405797,
        "alt_km": 410.2568346883181,
        "timestamp": "2025-12-11T18:59:44.811388+00:00",
        "meta_object_name": "STARLINK-35923",
        "meta_object_id": "2025-271AA",
        "meta_epoch": "2025-12-11T06:00:02.999808",
        "meta_mean_motion": 15.56431098,
        "meta_eccentricity": 0.00010731,
        "meta_inclination": 53.1595,
        "meta_ra_of_asc_node": 194.2849,
        "meta_arg_of_pericenter": 87.2248,
        "meta_mean_anomaly": 359.1966,
        "meta_ephemeris_type": 0,
        "meta_classification_type": "U",
        "meta_norad_cat_id": 66641,
        "meta_element_set_no": 999,
        "meta_rev_at_epoch": 400,
        "meta_bstar": -0.03299369,
        "meta_mean_motion_dot": -0.02111728,
        "meta_mean_motion_ddot": 0,
        "tle_line1": "1 66641U 25271AA  25345.25003472 -.02111728  00000+0 -32994-1 0  9993",
        "tle_line2": "2 66641  53.1595 194.2849 0001073  87.2248 359.1966 15.56431098  4007"
      },
      "geometry": {
        "type": "Point",
        "coordinates": [
          57.36674437405797,
          -43.666437712726875
        ]
      }
    },
    {
      "type": "Feature",
      "properties": {
        "norad_id": 66642,
        "name": "STARLINK-35926",
        "group": "last-30-days",
        "lat": -42.5771760733104,
        "lon": 55.21776862594821,
        "alt_km": 410.26822972712944,
        "timestamp": "2025-12-11T18:59:44.811398+00:00",
        "meta_object_name": "STARLINK-35926",
        "meta_object_id": "2025-271AB",
        "meta_epoch": "2025-12-11T06:00:02.999808",
        "meta_mean_motion": 15.56432556,
        "meta_eccentricity": 0.00010988,
        "meta_inclination": 53.1595,
        "meta_ra_of_asc_node": 194.2898,
        "meta_arg_of_pericenter": 73.9559,
        "meta_mean_anomaly": 10.5476,
        "meta_ephemeris_type": 0,
        "meta_classification_type": "U",
        "meta_norad_cat_id": 66642,
        "meta_element_set_no": 999,
        "meta_rev_at_epoch": 376,
        "meta_bstar": -0.032977866,
        "meta_mean_motion_dot": -0.02110947,
        "meta_mean_motion_ddot": 0,
        "tle_line1": "1 66642U 25271AB  25345.25003472 -.02110947  00000+0 -32978-1 0  9998",
        "tle_line2": "2 66642  53.1595 194.2898 0001098  73.9559  10.5476 15.56432556  3762"
      },
      "geometry": {
        "type": "Point",
        "coordinates": [
          55.21776862594821,
          -42.5771760733104
        ]
      }
    },
    {
      "type": "Feature",
      "properties": {
        "norad_id": 66643,
        "name": "STARLINK-35918",
        "group": "last-30-days",
        "lat": -40.283667344821076,
        "lon": 51.13911524337749,
        "alt_km": 410.1169886700891,
        "timestamp": "2025-12-11T18:59:44.811408+00:00",
        "meta_object_name": "STARLINK-35918",
        "meta_object_id": "2025-271AC",
        "meta_epoch": "2025-12-11T06:00:02.999808",
        "meta_mean_motion": 15.56431586,
        "meta_eccentricity": 0.00010954,
        "meta_inclination": 53.1597,
        "meta_ra_of_asc_node": 194.2982,
        "meta_arg_of_pericenter": 77.835,
        "meta_mean_anomaly": 2.8338,
        "meta_ephemeris_type": 0,
        "meta_classification_type": "U",
        "meta_norad_cat_id": 66643,
        "meta_element_set_no": 999,
        "meta_rev_at_epoch": 400,
        "meta_bstar": -0.032943421,
        "meta_mean_motion_dot": -0.02108914,
        "meta_mean_motion_ddot": 0,
        "tle_line1": "1 66643U 25271AC  25345.25003472 -.02108914  00000+0 -32943-1 0  9992",
        "tle_line2": "2 66643  53.1597 194.2982 0001095  77.8350   2.8338 15.56431586  4009"
      },
      "geometry": {
        "type": "Point",
        "coordinates": [
          51.13911524337749,
          -40.283667344821076
        ]
      }
    },
    {
      "type": "Feature",
      "properties": {
        "norad_id": 66644,
        "name": "STARLINK-35938",
        "group": "last-30-days",
        "lat": -41.44782459814583,
        "lon": 53.14149520556609,
        "alt_km": 410.17571374520776,
        "timestamp": "2025-12-11T18:59:44.811421+00:00",
        "meta_object_name": "STARLINK-35938",
        "meta_object_id": "2025-271AD",
        "meta_epoch": "2025-12-11T06:00:02.999808",
        "meta_mean_motion": 15.5643164,
        "meta_eccentricity": 0.0001061,
        "meta_inclination": 53.1595,
        "meta_ra_of_asc_node": 194.2942,
        "meta_arg_of_pericenter": 74.5918,
        "meta_mean_anomaly": 7.994,
        "meta_ephemeris_type": 0,
        "meta_classification_type": "U",
        "meta_norad_cat_id": 66644,
        "meta_element_set_no": 999,
        "meta_rev_at_epoch": 400,
        "meta_bstar": -0.032954569,
        "meta_mean_motion_dot": -0.02109531,
        "meta_mean_motion_ddot": 0,
        "tle_line1": "1 66644U 25271AD  25345.25003472 -.02109531  00000+0 -32955-1 0  9992",
        "tle_line2": "2 66644  53.1595 194.2942 0001061  74.5918   7.9940 15.56431640  4007"
      },
      "geometry": {
        "type": "Point",
        "coordinates": [
          53.14149520556609,
          -41.44782459814583
        ]
      }
    },
    {
      "type": "Feature",
      "properties": {
        "norad_id": 66645,
        "name": "SHENZHOU-22",
        "group": "last-30-days",
        "lat": -20.359247342899494,
        "lon": -132.689346817205,
        "alt_km": 397.7415613358089,
        "timestamp": "2025-12-11T18:59:44.811432+00:00",
        "meta_object_name": "SHENZHOU-22",
        "meta_object_id": "2025-272A",
        "meta_epoch": "2025-12-11T05:47:37.417056",
        "meta_mean_motion": 15.59084729,
        "meta_eccentricity": 0.00086412,
        "meta_inclination": 41.4683,
        "meta_ra_of_asc_node": 25.8033,
        "meta_arg_of_pericenter": 18.034,
        "meta_mean_anomaly": 342.0803,
        "meta_ephemeris_type": 0,
        "meta_classification_type": "U",
        "meta_norad_cat_id": 66645,
        "meta_element_set_no": 999,
        "meta_rev_at_epoch": 26357,
        "meta_bstar": 0.00049057627,
        "meta_mean_motion_dot": 0.00039326,
        "meta_mean_motion_ddot": 0,
        "tle_line1": "1 66645U 25272A   25345.24140529  .00039326  00000+0  49058-3 0  9992",
        "tle_line2": "2 66645  41.4683  25.8033 0008641  18.0340 342.0803 15.59084729263574"
      },
      "geometry": {
        "type": "Point",
        "coordinates": [
          -132.689346817205,
          -20.359247342899494
        ]
      }
    }
  ]
}